{"spkid": "50651192", "covariance": {"elements": [{"label": "e", "sigma": 2.45524993187466e-07, "name": "e", "title": "eccentricity", "value": ".6024136811406352", "units": null}, {"name": "q", "sigma": 5.33847933908228e-07, "value": ".8528609501184474", "title": "perihelion distance", "units": "au", "label": "q"}, {"name": "tp", "sigma": 6.23025614182814e-05, "units": "TDB", "value": "2456521.327341758902", "title": "time of perihelion passage", "label": "tp"}, {"label": "node", "title": "longitude of the ascending node", "value": "341.5201330249995", "units": "deg", "sigma": 0.000282761591094043, "name": "om"}, {"label": "peri", "name": "w", "sigma": 0.000273429682853576, "title": "argument of perihelion", "value": "327.0545094779532", "units": "deg"}, {"label": "i", "name": "i", "sigma": 2.12478841034675e-05, "units": "deg", "value": "6.479513532710329", "title": "inclination"}], "data": [["6.028252227970528E-14", "-1.309641591924269E-13", "-6.87266277077696E-14", "2.962806629956825E-11", "-4.148913055400166E-11", "2.356392649493138E-12"], ["-1.309641591924269E-13", "2.849936165380834E-13", "-9.644891428429821E-13", "-6.853328192524301E-11", "9.348595224664982E-11", "-5.318302451406454E-12"], ["-6.87266277077696E-14", "-9.644891428429821E-13", "3.881609159278721E-9", "1.423834359103413E-8", "-1.13223647061459E-8", "6.744123211847966E-10"], ["2.962806629956825E-11", "-6.853328192524301E-11", "1.423834359103413E-8", "7.995411739803471E-8", "-7.510067282209621E-8", "5.302038388996979E-9"], ["-4.148913055400166E-11", "9.348595224664982E-11", "-1.13223647061459E-8", "-7.510067282209621E-8", "7.476379146540725E-8", "-5.255067040513145E-9"], ["2.356392649493138E-12", "-5.318302451406454E-12", "6.744123211847966E-10", "5.302038388996979E-9", "-5.255067040513145E-9", "4.514725788743861E-10"]], "labels": ["e", "q", "tp", "node", "peri", "i"], "epoch": "2456978.5"}, "elements": [{"label": "e", "title": "eccentricity", "value": ".6015735768912472", "units": null, "sigma": "2.4299E-7", "name": "e"}, {"sigma": "6.1777E-8", "name": "a", "units": "au", "value": "2.144605814400862", "title": "semi-major axis", "label": "a"}, {"label": "q", "sigma": "5.2503E-7", "name": "q", "units": "au", "value": ".854467623609969", "title": "perihelion distance"}, {"units": "deg", "title": "inclination; angle with respect to x-y ecliptic plane", "value": "6.488255844531866", "name": "i", "sigma": "2.1504E-5", "label": "i"}, {"label": "node", "title": "longitude of the ascending node", "value": "341.3985354486767", "units": "deg", "sigma": ".00028139", "name": "om"}, {"title": "argument of perihelion", "value": "327.2620874440809", "units": "deg", "name": "w", "sigma": ".00027206", "label": "peri"}, {"label": "M", "sigma": "4.7796E-5", "name": "ma", "units": "deg", "title": "mean anomaly", "value": "27.66484379263546"}, {"label": "tp", "value": "2461112.345321255786", "title": "time of perihelion passage", "units": "TDB", "name": "tp", "sigma": ".0001486"}, {"units": "d", "value": "1147.148510426983", "title": "sidereal orbital period", "name": "per", "sigma": "4.9567E-5", "label": "period"}, {"label": "n", "name": "n", "sigma": "1.356E-8", "title": "mean motion", "value": ".3138216165804056", "units": "deg/d"}, {"sigma": "9.8941E-8", "name": "ad", "title": "aphelion distance", "value": "3.434744005191755", "units": "au", "label": "Q"}], "epoch": "2461200.5"}